{
  "type": "FeatureCollection",
  "features": [
    {
      "type": "Feature",
      "properties": {
        "norad_id": 66907,
        "name": "1998-067XT",
        "group": "stations",
        "lat": 6.882569177368276,
        "lon": 178.94504585135732,
        "alt_km": 418.87273107479905,
        "timestamp": "2025-12-06T11:28:09.809420+00:00",
        "meta_object_name": "1998-067XT",
        "meta_object_id": "1998-067XT",
        "meta_epoch": "2025-12-05T23:03:20.722464",
        "meta_mean_motion": 15.50347782,
        "meta_eccentricity": 0.00053008,
        "meta_inclination": 51.6292,
        "meta_ra_of_asc_node": 176.0227,
        "meta_arg_of_pericenter": 190.4344,
        "meta_mean_anomaly": 169.6536,
        "meta_ephemeris_type": 0,
        "meta_classification_type": "U",
        "meta_norad_cat_id": 66907,
        "meta_element_set_no": 999,
        "meta_rev_at_epoch": 56,
        "meta_bstar": 0.0012672984,
        "meta_mean_motion_dot": 0.00073478,
        "meta_mean_motion_ddot": 0,
        "tle_line1": "1 66907U 98067XT  25339.96065651  .00073478  00000+0  12673-2 0  9997",
        "tle_line2": "2 66907  51.6292 176.0227 0005300 190.4344 169.6536 15.50347782   562"
      },
      "geometry": {
        "type": "Point",
        "coordinates": [
          178.94504585135732,
          6.882569177368276
        ]
      }
    },
    {
      "type": "Feature",
      "properties": {
        "norad_id": 66908,
        "name": "1998-067XU",
        "group": "stations",
        "lat": 7.4055249836073775,
        "lon": 179.36566819587895,
        "alt_km": 418.7410763083908,
        "timestamp": "2025-12-06T11:28:09.809430+00:00",
        "meta_object_name": "1998-067XU",
        "meta_object_id": "1998-067XU",
        "meta_epoch": "2025-12-05T19:57:34.192800",
        "meta_mean_motion": 15.50396969,
        "meta_eccentricity": 0.00055014,
        "meta_inclination": 51.6293,
        "meta_ra_of_asc_node": 176.6606,
        "meta_arg_of_pericenter": 189.4438,
        "meta_mean_anomaly": 170.6448,
        "meta_ephemeris_type": 0,
        "meta_classification_type": "U",
        "meta_norad_cat_id": 66908,
        "meta_element_set_no": 999,
        "meta_rev_at_epoch": 54,
        "meta_bstar": 0.0012460713,
        "meta_mean_motion_dot": 0.00072359,
        "meta_mean_motion_ddot": 0,
        "tle_line1": "1 66908U 98067XU  25339.83164575  .00072359  00000+0  12461-2 0  9991",
        "tle_line2": "2 66908  51.6293 176.6606 0005501 189.4438 170.6448 15.50396969   549"
      },
      "geometry": {
        "type": "Point",
        "coordinates": [
          179.36566819587895,
          7.4055249836073775
        ]
      }
    },
    {
      "type": "Feature",
      "properties": {
        "norad_id": 66909,
        "name": "1998-067XV",
        "group": "stations",
        "lat": 7.505071778300863,
        "lon": 179.44633475122842,
        "alt_km": 418.54741316602576,
        "timestamp": "2025-12-06T11:28:09.809440+00:00",
        "meta_object_name": "1998-067XV",
        "meta_object_id": "1998-067XV",
        "meta_epoch": "2025-12-05T18:24:43.911360",
        "meta_mean_motion": 15.50399103,
        "meta_eccentricity": 0.00053649,
        "meta_inclination": 51.6292,
        "meta_ra_of_asc_node": 176.9805,
        "meta_arg_of_pericenter": 189.9534,
        "meta_mean_anomaly": 170.135,
        "meta_ephemeris_type": 0,
        "meta_classification_type": "U",
        "meta_norad_cat_id": 66909,
        "meta_element_set_no": 999,
        "meta_rev_at_epoch": 53,
        "meta_bstar": 0.0014470913,
        "meta_mean_motion_dot": 0.00084238,
        "meta_mean_motion_ddot": 0,
        "tle_line1": "1 66909U 98067XV  25339.76717490  .00084238  00000+0  14471-2 0  9996",
        "tle_line2": "2 66909  51.6292 176.9805 0005364 189.9534 170.1350 15.50399103   531"
      },
      "geometry": {
        "type": "Point",
        "coordinates": [
          179.44633475122842,
          7.505071778300863
        ]
      }
    },
    {
      "type": "Feature",
      "properties": {
        "norad_id": 66910,
        "name": "1998-067XW",
        "group": "stations",
        "lat": 10.674017972917078,
        "lon": -177.96490924980122,
        "alt_km": 417.8899511300433,
        "timestamp": "2025-12-06T11:28:09.809449+00:00",
        "meta_object_name": "1998-067XW",
        "meta_object_id": "1998-067XW",
        "meta_epoch": "2025-12-05T23:02:14.972928",
        "meta_mean_motion": 15.50685227,
        "meta_eccentricity": 0.00063204,
        "meta_inclination": 51.6293,
        "meta_ra_of_asc_node": 176.0172,
        "meta_arg_of_pericenter": 176.8088,
        "meta_mean_anomaly": 183.2943,
        "meta_ephemeris_type": 0,
        "meta_classification_type": "U",
        "meta_norad_cat_id": 66910,
        "meta_element_set_no": 999,
        "meta_rev_at_epoch": 56,
        "meta_bstar": 0.0012355568,
        "meta_mean_motion_dot": 0.000725,
        "meta_mean_motion_ddot": 0,
        "tle_line1": "1 66910U 98067XW  25339.95989552  .00072500  00000+0  12356-2 0  9998",
        "tle_line2": "2 66910  51.6293 176.0172 0006320 176.8088 183.2943 15.50685227   565"
      },
      "geometry": {
        "type": "Point",
        "coordinates": [
          -177.96490924980122,
          10.674017972917078
        ]
      }
    },
    {
      "type": "Feature",
      "properties": {
        "norad_id": 66911,
        "name": "1998-067XX",
        "group": "stations",
        "lat": 11.01079060571128,
        "lon": -177.6859560812537,
        "alt_km": 417.5687107627291,
        "timestamp": "2025-12-06T11:28:09.809463+00:00",
        "meta_object_name": "1998-067XX",
        "meta_object_id": "1998-067XX",
        "meta_epoch": "2025-12-05T21:29:22.335360",
        "meta_mean_motion": 15.50737311,
        "meta_eccentricity": 0.00062325,
        "meta_inclination": 51.6291,
        "meta_ra_of_asc_node": 176.3366,
        "meta_arg_of_pericenter": 176.693,
        "meta_mean_anomaly": 183.4102,
        "meta_ephemeris_type": 0,
        "meta_classification_type": "U",
        "meta_norad_cat_id": 66911,
        "meta_element_set_no": 999,
        "meta_rev_at_epoch": 54,
        "meta_bstar": 0.0013660051,
        "meta_mean_motion_dot": 0.00080432,
        "meta_mean_motion_ddot": 0,
        "tle_line1": "1 66911U 98067XX  25339.89539740  .00080432  00000+0  13660-2 0  9994",
        "tle_line2": "2 66911  51.6291 176.3366 0006232 176.6930 183.4102 15.50737311   547"
      },
      "geometry": {
        "type": "Point",
        "coordinates": [
          -177.6859560812537,
          11.01079060571128
        ]
      }
    },
    {
      "type": "Feature",
      "properties": {
        "norad_id": 66912,
        "name": "1998-067XY",
        "group": "stations",
        "lat": 6.285428607378535,
        "lon": 178.46408509024067,
        "alt_km": 419.30663544899926,
        "timestamp": "2025-12-06T11:28:09.809473+00:00",
        "meta_object_name": "1998-067XY",
        "meta_object_id": "1998-067XY",
        "meta_epoch": "2025-12-05T19:57:50.505120",
        "meta_mean_motion": 15.50237673,
        "meta_eccentricity": 0.00053781,
        "meta_inclination": 51.6293,
        "meta_ra_of_asc_node": 176.6617,
        "meta_arg_of_pericenter": 189.6271,
        "meta_mean_anomaly": 170.4616,
        "meta_ephemeris_type": 0,
        "meta_classification_type": "U",
        "meta_norad_cat_id": 66912,
        "meta_element_set_no": 999,
        "meta_rev_at_epoch": 53,
        "meta_bstar": 0.0011244391,
        "meta_mean_motion_dot": 0.00064818,
        "meta_mean_motion_ddot": 0,
        "tle_line1": "1 66912U 98067XY  25339.83183455  .00064818  00000+0  11244-2 0  9993",
        "tle_line2": "2 66912  51.6293 176.6617 0005378 189.6271 170.4616 15.50237673   535"
      },
      "geometry": {
        "type": "Point",
        "coordinates": [
          178.46408509024067,
          6.285428607378535
        ]
      }
    }
  ]
}